[{"OBJECT_NAME":"YAOGAN-30 07A","OBJECT_ID":"2020-021A","EPOCH":"2026-03-09T13:20:42.408096","MEAN_MOTION":15.02093562,"ECCENTRICITY":0.0004392,"INCLINATION":34.9941,"RA_OF_ASC_NODE":97.9026,"ARG_OF_PERICENTER":231.7665,"MEAN_ANOMALY":128.2648,"EPHEMERIS_TYPE":0,"CLASSIFICATION_TYPE":"U","NORAD_CAT_ID":45460,"ELEMENT_SET_NO":999,"REV_AT_EPOCH":32556,"BSTAR":0.00035264,"MEAN_MOTION_DOT":4.701e-5,"MEAN_MOTION_DDOT":0},{"OBJECT_NAME":"STARLINK-6081","OBJECT_ID":"2023-046R","EPOCH":"2026-03-08T15:14:43.084896","MEAN_MOTION":15.02697277,"ECCENTRICITY":5.782e-5,"INCLINATION":43.0031,"RA_OF_ASC_NODE":164.6545,"ARG_OF_PERICENTER":245.9294,"MEAN_ANOMALY":114.1488,"EPHEMERIS_TYPE":0,"CLASSIFICATION_TYPE":"U","NORAD_CAT_ID":56108,"ELEMENT_SET_NO":999,"REV_AT_EPOCH":16190,"BSTAR":0.0013507201,"MEAN_MOTION_DOT":0.00018168,"MEAN_MOTION_DDOT":0}]
